{
  "type": "FeatureCollection",
  "name": "VIIRS_SST_ChlA_2025_Thailand_Marine_Zones",
  "crs": {
    "type": "name",
    "properties": {
      "name": "urn:ogc:def:crs:OGC:1.3:CRS84"
    }
  },
  "features": [
    {
      "type": "Feature",
      "geometry": {
        "type": "Point",
        "coordinates": [
          100.5,
          13.2
        ]
      },
      "properties": {
        "zone_id": "upper_gulf",
        "zone_name_th": "อ่าวไทยตอนบน",
        "year": 2025,
        "sst_annual_mean": 29.06,
        "chl_annual_mean": 4.435,
        "sst_anomaly_annual_mean": -1.2,
        "sst_Jan": 26.86,
        "chl_Jan": 2.04,
        "sst_anomaly_Jan": -0.94,
        "sst_Feb": 28.07,
        "chl_Feb": 1.88,
        "sst_anomaly_Feb": -0.49,
        "sst_Mar": 28.98,
        "chl_Mar": 1.96,
        "sst_anomaly_Mar": -0.72,
        "sst_Apr": 30.5,
        "chl_Apr": 3.67,
        "sst_anomaly_Apr": -0.87,
        "sst_May": 31.42,
        "chl_May": 5.45,
        "sst_anomaly_May": -0.98,
        "sst_Jun": 30.38,
        "chl_Jun": 7.02,
        "sst_anomaly_Jun": -1.13,
        "sst_Jul": 28.87,
        "chl_Jul": 3.62,
        "sst_anomaly_Jul": -2.33,
        "sst_Aug": 29.47,
        "chl_Aug": 6.78,
        "sst_anomaly_Aug": -1.33,
        "sst_Sep": 29.56,
        "chl_Sep": 5.54,
        "sst_anomaly_Sep": -1.55,
        "sst_Oct": 29.74,
        "chl_Oct": 6.51,
        "sst_anomaly_Oct": -0.73,
        "sst_Nov": 27.7,
        "chl_Nov": 5.09,
        "sst_anomaly_Nov": -2.1,
        "sst_Dec": 27.13,
        "chl_Dec": 3.66,
        "sst_anomaly_Dec": -1.17
      }
    },
    {
      "type": "Feature",
      "geometry": {
        "type": "Point",
        "coordinates": [
          101.3,
          12.5
        ]
      },
      "properties": {
        "zone_id": "rayong",
        "zone_name_th": "อ่าวระยอง",
        "year": 2025,
        "sst_annual_mean": 29.15,
        "chl_annual_mean": 0.729,
        "sst_anomaly_annual_mean": -0.98,
        "sst_Jan": 27.73,
        "chl_Jan": 0.75,
        "sst_anomaly_Jan": -0.72,
        "sst_Feb": 28.87,
        "chl_Feb": 0.62,
        "sst_anomaly_Feb": -0.11,
        "sst_Mar": 29.25,
        "chl_Mar": 0.53,
        "sst_anomaly_Mar": -0.53,
        "sst_Apr": 30.22,
        "chl_Apr": 0.51,
        "sst_anomaly_Apr": -1.06,
        "sst_May": 31.05,
        "chl_May": 0.63,
        "sst_anomaly_May": -0.8,
        "sst_Jun": 30.08,
        "chl_Jun": 0.81,
        "sst_anomaly_Jun": -0.88,
        "sst_Jul": 28.82,
        "chl_Jul": 0.78,
        "sst_anomaly_Jul": -1.64,
        "sst_Aug": 29.34,
        "chl_Aug": 0.71,
        "sst_anomaly_Aug": -0.63,
        "sst_Sep": 29.04,
        "chl_Sep": 0.93,
        "sst_anomaly_Sep": -1.38,
        "sst_Oct": 29.27,
        "chl_Oct": 0.9,
        "sst_anomaly_Oct": -1.09,
        "sst_Nov": 28.16,
        "chl_Nov": 0.95,
        "sst_anomaly_Nov": -1.99,
        "sst_Dec": 27.97,
        "chl_Dec": 0.63,
        "sst_anomaly_Dec": -0.95
      }
    },
    {
      "type": "Feature",
      "geometry": {
        "type": "Point",
        "coordinates": [
          102.5,
          11.8
        ]
      },
      "properties": {
        "zone_id": "trat",
        "zone_name_th": "อ่าวตราด",
        "year": 2025,
        "sst_annual_mean": 29.38,
        "chl_annual_mean": 1.189,
        "sst_anomaly_annual_mean": -0.9,
        "sst_Jan": 28.68,
        "chl_Jan": 0.92,
        "sst_anomaly_Jan": -0.19,
        "sst_Feb": 29.24,
        "chl_Feb": 0.88,
        "sst_anomaly_Feb": 0.06,
        "sst_Mar": 29.82,
        "chl_Mar": 0.97,
        "sst_anomaly_Mar": -0.27,
        "sst_Apr": 30.72,
        "chl_Apr": 0.8,
        "sst_anomaly_Apr": -0.75,
        "sst_May": 30.83,
        "chl_May": 0.89,
        "sst_anomaly_May": -1.0,
        "sst_Jun": 30.18,
        "chl_Jun": 1.14,
        "sst_anomaly_Jun": -0.68,
        "sst_Jul": 28.77,
        "chl_Jul": 1.76,
        "sst_anomaly_Jul": -1.72,
        "sst_Aug": 29.33,
        "chl_Aug": 1.54,
        "sst_anomaly_Aug": -0.83,
        "sst_Sep": 28.73,
        "chl_Sep": 1.3,
        "sst_anomaly_Sep": -1.64,
        "sst_Oct": 29.72,
        "chl_Oct": 1.68,
        "sst_anomaly_Oct": -0.72,
        "sst_Nov": 27.98,
        "chl_Nov": 1.42,
        "sst_anomaly_Nov": -2.26,
        "sst_Dec": 28.5,
        "chl_Dec": 0.97,
        "sst_anomaly_Dec": -0.74
      }
    },
    {
      "type": "Feature",
      "geometry": {
        "type": "Point",
        "coordinates": [
          101.0,
          9.5
        ]
      },
      "properties": {
        "zone_id": "central_gulf",
        "zone_name_th": "อ่าวไทยตอนกลาง",
        "year": 2025,
        "sst_annual_mean": 29.66,
        "chl_annual_mean": 1.753,
        "sst_anomaly_annual_mean": -0.78,
        "sst_Jan": 28.23,
        "chl_Jan": 2.32,
        "sst_anomaly_Jan": -0.27,
        "sst_Feb": 29.6,
        "chl_Feb": 1.88,
        "sst_anomaly_Feb": 0.43,
        "sst_Mar": 30.01,
        "chl_Mar": 1.74,
        "sst_anomaly_Mar": -0.5,
        "sst_Apr": 30.95,
        "chl_Apr": 1.1,
        "sst_anomaly_Apr": -0.9,
        "sst_May": 31.23,
        "chl_May": 1.16,
        "sst_anomaly_May": -1.04,
        "sst_Jun": 30.49,
        "chl_Jun": 1.26,
        "sst_anomaly_Jun": -0.79,
        "sst_Jul": 29.62,
        "chl_Jul": 1.32,
        "sst_anomaly_Jul": -1.33,
        "sst_Aug": 30.04,
        "chl_Aug": 1.14,
        "sst_anomaly_Aug": -0.65,
        "sst_Sep": 29.77,
        "chl_Sep": 1.32,
        "sst_anomaly_Sep": -0.93,
        "sst_Oct": 29.61,
        "chl_Oct": 1.42,
        "sst_anomaly_Oct": -0.95,
        "sst_Nov": 28.42,
        "chl_Nov": 3.08,
        "sst_anomaly_Nov": -1.58,
        "sst_Dec": 27.94,
        "chl_Dec": 3.29,
        "sst_anomaly_Dec": -0.8
      }
    },
    {
      "type": "Feature",
      "geometry": {
        "type": "Point",
        "coordinates": [
          102.0,
          7.5
        ]
      },
      "properties": {
        "zone_id": "lower_gulf",
        "zone_name_th": "อ่าวไทยตอนล่าง",
        "year": 2025,
        "sst_annual_mean": 29.86,
        "chl_annual_mean": 0.829,
        "sst_anomaly_annual_mean": -0.5,
        "sst_Jan": 28.37,
        "chl_Jan": 1.1,
        "sst_anomaly_Jan": -0.19,
        "sst_Feb": 29.41,
        "chl_Feb": 0.99,
        "sst_anomaly_Feb": 0.58,
        "sst_Mar": 29.0,
        "chl_Mar": 0.7,
        "sst_anomaly_Mar": -0.91,
        "sst_Apr": 30.46,
        "chl_Apr": 0.45,
        "sst_anomaly_Apr": -0.8,
        "sst_May": 30.89,
        "chl_May": 0.51,
        "sst_anomaly_May": -0.93,
        "sst_Jun": 30.62,
        "chl_Jun": 0.52,
        "sst_anomaly_Jun": -0.74,
        "sst_Jul": 30.6,
        "chl_Jul": 0.51,
        "sst_anomaly_Jul": -0.55,
        "sst_Aug": 30.74,
        "chl_Aug": 0.49,
        "sst_anomaly_Aug": -0.14,
        "sst_Sep": 30.22,
        "chl_Sep": 0.5,
        "sst_anomaly_Sep": -0.57,
        "sst_Oct": 29.84,
        "chl_Oct": 0.57,
        "sst_anomaly_Oct": -0.84,
        "sst_Nov": 29.92,
        "chl_Nov": 1.15,
        "sst_anomaly_Nov": -0.15,
        "sst_Dec": 28.19,
        "chl_Dec": 2.46,
        "sst_anomaly_Dec": -0.76
      }
    },
    {
      "type": "Feature",
      "geometry": {
        "type": "Point",
        "coordinates": [
          98.0,
          8.0
        ]
      },
      "properties": {
        "zone_id": "andaman",
        "zone_name_th": "ทะเลอันดามัน",
        "year": 2025,
        "sst_annual_mean": 29.86,
        "chl_annual_mean": 0.69,
        "sst_anomaly_annual_mean": -0.62,
        "sst_Jan": 29.69,
        "chl_Jan": 0.8,
        "sst_anomaly_Jan": 0.49,
        "sst_Feb": 29.9,
        "chl_Feb": 0.87,
        "sst_anomaly_Feb": 0.17,
        "sst_Mar": 30.06,
        "chl_Mar": 0.72,
        "sst_anomaly_Mar": -0.63,
        "sst_Apr": 30.44,
        "chl_Apr": 0.77,
        "sst_anomaly_Apr": -1.07,
        "sst_May": 30.82,
        "chl_May": 0.62,
        "sst_anomaly_May": -0.83,
        "sst_Jun": 30.23,
        "chl_Jun": 0.51,
        "sst_anomaly_Jun": -0.84,
        "sst_Jul": 30.05,
        "chl_Jul": 0.6,
        "sst_anomaly_Jul": -0.6,
        "sst_Aug": 30.23,
        "chl_Aug": 0.63,
        "sst_anomaly_Aug": -0.39,
        "sst_Sep": 29.54,
        "chl_Sep": 0.6,
        "sst_anomaly_Sep": -1.05,
        "sst_Oct": 29.6,
        "chl_Oct": 0.7,
        "sst_anomaly_Oct": -0.79,
        "sst_Nov": 29.08,
        "chl_Nov": 0.79,
        "sst_anomaly_Nov": -1.09,
        "sst_Dec": 28.67,
        "chl_Dec": 0.67,
        "sst_anomaly_Dec": -0.86
      }
    }
  ]
}